[{"OBJECT_NAME":"STARLINK-31423","OBJECT_ID":"2024-049M","EPOCH":"2026-03-09T13:29:41.233056","MEAN_MOTION":15.27583183,"ECCENTRICITY":0.0001346,"INCLINATION":43.0005,"RA_OF_ASC_NODE":144.5037,"ARG_OF_PERICENTER":254.2471,"MEAN_ANOMALY":105.8232,"EPHEMERIS_TYPE":0,"CLASSIFICATION_TYPE":"U","NORAD_CAT_ID":59242,"ELEMENT_SET_NO":999,"REV_AT_EPOCH":11238,"BSTAR":-4.5549e-5,"MEAN_MOTION_DOT":-1.515e-5,"MEAN_MOTION_DDOT":0},{"OBJECT_NAME":"DMSP 5D-2 F13 DEB","OBJECT_ID":"1995-015HL","EPOCH":"2026-02-09T02:06:19.247328","MEAN_MOTION":15.12822218,"ECCENTRICITY":0.00117732,"INCLINATION":98.8603,"RA_OF_ASC_NODE":96.8879,"ARG_OF_PERICENTER":223.037,"MEAN_ANOMALY":136.9936,"EPHEMERIS_TYPE":0,"CLASSIFICATION_TYPE":"U","NORAD_CAT_ID":42294,"ELEMENT_SET_NO":999,"REV_AT_EPOCH":55633,"BSTAR":0.010466292,"MEAN_MOTION_DOT":0.00188804,"MEAN_MOTION_DDOT":0}]
